IRIDIUM 106             
1 41917U 17003A   24236.64339894  .00000335  00000+0  11261-3 0  9990
2 41917  86.4013   5.3906 0001788  90.4513 269.6887 14.34213550398245
IRIDIUM 103             
1 41918U 17003B   24237.11909473  .00000704  00000+0  24428-3 0  9999
2 41918  86.4014   5.0935 0002353  80.5230 279.6232 14.34215381398341
IRIDIUM 109             
1 41919U 17003C   24237.05567613  .00000166  00000+0  52294-4 0  9994
2 41919  86.4015   5.1687 0002629  94.5980 265.5516 14.34217427398310
IRIDIUM 105             
1 41921U 17003E   24237.20383059  .00000857  00000+0  29879-3 0  9993
2 41921  86.4018 333.4988 0002163  88.4665 271.6779 14.34230538400256
IRIDIUM 114             
1 41923U 17003G   24236.41506888  .00000683  00000+0  23671-3 0  9995
2 41923  86.4014   5.3919 0001949  91.8642 268.2777 14.34222483398253
IRIDIUM 108             
1 41924U 17003H   24237.21080847  .00000015  00000+0 -16239-5 0  9991
2 41924  86.4009 333.4162 0001963  97.5503 262.5916 14.34213519400243
